{
  "type": "FeatureCollection",
  "features": [
    {
      "type": "Feature",
      "properties": {
        "norad_id": 54741,
        "name": "GALAXY 35 (G-35)",
        "group": "intelsat",
        "lat": 0.016064868622938027,
        "lon": 59.82781788342672,
        "alt_km": 35794.148616396895,
        "timestamp": "2025-12-25T03:55:55.975291+00:00",
        "meta_object_name": "GALAXY 35 (G-35)",
        "meta_object_id": "2022-170A",
        "meta_epoch": "2025-12-24T14:22:11.269920",
        "meta_mean_motion": 1.002713,
        "meta_eccentricity": 0.0002303,
        "meta_inclination": 0.0298,
        "meta_ra_of_asc_node": 246.103,
        "meta_arg_of_pericenter": 29.5431,
        "meta_mean_anomaly": 300.1805,
        "meta_ephemeris_type": 0,
        "meta_classification_type": "U",
        "meta_norad_cat_id": 54741,
        "meta_element_set_no": 999,
        "meta_rev_at_epoch": 1114,
        "meta_bstar": 0,
        "meta_mean_motion_dot": -1.41e-06,
        "meta_mean_motion_ddot": 0,
        "tle_line1": "1 54741U 22170A   25358.59874155 -.00000141  00000+0  00000+0 0  9995",
        "tle_line2": "2 54741   0.0298 246.1030 0002303  29.5431 300.1805  1.00271300 11148"
      },
      "geometry": {
        "type": "Point",
        "coordinates": [
          59.82781788342672,
          0.016064868622938027
        ]
      }
    },
    {
      "type": "Feature",
      "properties": {
        "norad_id": 54742,
        "name": "GALAXY 36 (G-36)",
        "group": "intelsat",
        "lat": 0.00909145951380474,
        "lon": 63.9156970666316,
        "alt_km": 35785.704078097544,
        "timestamp": "2025-12-25T03:55:55.975302+00:00",
        "meta_object_name": "GALAXY 36 (G-36)",
        "meta_object_id": "2022-170B",
        "meta_epoch": "2025-12-24T12:40:35.997888",
        "meta_mean_motion": 1.0027244,
        "meta_eccentricity": 3.31e-05,
        "meta_inclination": 0.0128,
        "meta_ra_of_asc_node": 68.6149,
        "meta_arg_of_pericenter": 274.9941,
        "meta_mean_anomaly": 210.8483,
        "meta_ephemeris_type": 0,
        "meta_classification_type": "U",
        "meta_norad_cat_id": 54742,
        "meta_element_set_no": 999,
        "meta_rev_at_epoch": 1102,
        "meta_bstar": 0,
        "meta_mean_motion_dot": -1.64e-06,
        "meta_mean_motion_ddot": 0,
        "tle_line1": "1 54742U 22170B   25358.52819442 -.00000164  00000+0  00000+0 0  9992",
        "tle_line2": "2 54742   0.0128  68.6149 0000331 274.9941 210.8483  1.00272440 11022"
      },
      "geometry": {
        "type": "Point",
        "coordinates": [
          63.9156970666316,
          0.00909145951380474
        ]
      }
    },
    {
      "type": "Feature",
      "properties": {
        "norad_id": 57493,
        "name": "GALAXY 37 (G-37)",
        "group": "intelsat",
        "lat": 0.008474302012034961,
        "lon": 25.91843334343655,
        "alt_km": 35788.90978247073,
        "timestamp": "2025-12-25T03:55:55.975314+00:00",
        "meta_object_name": "GALAXY 37 (G-37)",
        "meta_object_id": "2023-112A",
        "meta_epoch": "2025-12-24T17:37:52.532256",
        "meta_mean_motion": 1.00271631,
        "meta_eccentricity": 0.0002076,
        "meta_inclination": 0.0166,
        "meta_ra_of_asc_node": 13.7195,
        "meta_arg_of_pericenter": 263.5118,
        "meta_mean_anomaly": 313.7338,
        "meta_ephemeris_type": 0,
        "meta_classification_type": "U",
        "meta_norad_cat_id": 57493,
        "meta_element_set_no": 999,
        "meta_rev_at_epoch": 879,
        "meta_bstar": 0,
        "meta_mean_motion_dot": 6.9e-07,
        "meta_mean_motion_ddot": 0,
        "tle_line1": "1 57493U 23112A   25358.73463579  .00000069  00000+0  00000+0 0  9997",
        "tle_line2": "2 57493   0.0166  13.7195 0002076 263.5118 313.7338  1.00271631  8793"
      },
      "geometry": {
        "type": "Point",
        "coordinates": [
          25.91843334343655,
          0.008474302012034961
        ]
      }
    }
  ]
}